[{"OBJECT_NAME":"STARLINK-5783","OBJECT_ID":"2023-042AN","EPOCH":"2026-03-09T22:00:01.999584","MEAN_MOTION":15.08650894,"ECCENTRICITY":0.00016174,"INCLINATION":43.0002,"RA_OF_ASC_NODE":41.7777,"ARG_OF_PERICENTER":282.5326,"MEAN_ANOMALY":144.2622,"EPHEMERIS_TYPE":0,"CLASSIFICATION_TYPE":"U","NORAD_CAT_ID":56022,"ELEMENT_SET_NO":999,"REV_AT_EPOCH":573,"BSTAR":0.0037600239,"MEAN_MOTION_DOT":0.00060186,"MEAN_MOTION_DDOT":0},{"OBJECT_NAME":"ICEYE-X38","OBJECT_ID":"2024-043C","EPOCH":"2026-03-09T22:31:51.164832","MEAN_MOTION":15.11764469,"ECCENTRICITY":0.00034523,"INCLINATION":97.8238,"RA_OF_ASC_NODE":210.1187,"ARG_OF_PERICENTER":76.8106,"MEAN_ANOMALY":283.3508,"EPHEMERIS_TYPE":0,"CLASSIFICATION_TYPE":"U","NORAD_CAT_ID":59100,"ELEMENT_SET_NO":999,"REV_AT_EPOCH":9667,"BSTAR":0.00052269951,"MEAN_MOTION_DOT":8.853e-5,"MEAN_MOTION_DDOT":0}]
